[
    {
        "Altitude(m)": 611965.2203602918,
        "Argument of Periapsis(deg)": 0.0,
        "Eccentricity": 0.0,
        "Inclination(deg)": 60.0,
        "Latitude(deg)": 59.140267671512866,
        "Longitude(deg)": 38.96965524638205,
        "Mean Anomaly(deg)": 81.8182,
        "RAAN(deg)": 65.0,
        "Satellite Name": "Test1 291",
        "Satellite Number": 291,
        "Semi-Major Axis(m)": 6980739.136638005,
        "Time(s)": 0
    },
    {
        "Altitude(m)": 611995.8463987616,
        "Argument of Periapsis(deg)": 0.00010418945913296404,
        "Eccentricity": 0.0,
        "Inclination(deg)": 60.0,
        "Latitude(deg)": 59.28336956215891,
        "Longitude(deg)": 40.10302005183847,
        "Mean Anomaly(deg)": 82.43830614546182,
        "RAAN(deg)": 64.99957995086025,
        "Satellite Name": "Test1 291",
        "Satellite Number": 291,
        "Semi-Major Axis(m)": 6980739.136638005,
        "Time(s)": 10
    }
]